STARLINK-1008           
1 44714U 19074B   26078.56158043  .00010248  00000+0  34138-3 0  9992
2 44714  53.1560 132.8136 0001786  66.9384 293.1805 15.31715890350381
STARLINK-34130          
1 64736U 25144N   26078.56150112  .00012863  00000+0  44534-3 0  9998
2 64736  53.1590 135.1603 0001144  82.1078 278.0053 15.30224036 41226
STARLINK-34249          
1 65376U 25190AB  26078.55994722  .00035453  00000+0  12025-2 0  9991
2 65376  53.1567 122.5169 0000994  73.2871 286.8239 15.30225842 31680
STARLINK-3197           
1 49757U 21115AK  26078.41797911 -.00000319  00000+0 -19768-5 0  9994
2 49757  53.2171  95.4592 0001302  80.8129 279.3011 15.08833194237143
STARLINK-3339           
1 50820U 22001T   26078.55410108  .00000105  00000+0  24663-4 0  9997
2 50820  53.2158 124.8385 0001103  89.1677 270.9442 15.08835160231893
STARLINK-35902          
1 66626U 25271K   26078.42653511  .00009631  00000+0  33688-3 0  9992
2 66626  53.1584  94.9754 0001634  92.0901 268.0287 15.30198940 19055
STARLINK-11279 [DTC]    
1 61206U 24171G   26078.50815421 -.00000733  00000+0 -11927-5 0  9998
2 61206  53.1582 127.6537 0000971  74.8588 285.2538 15.69706278 85949
STARLINK-4110           
1 53166U 22083AL  26078.48742302  .00000276  00000+0  35413-4 0  9993
2 53166  53.2163 120.0380 0001325  88.8930 271.2214 15.08838289202841
STARLINK-4031           
1 52679U 22053Z   26078.48464001  .00000823  00000+0  69836-4 0  9999
2 52679  53.2164 100.1503 0001311  85.8892 274.2250 15.08826568212611
STARLINK-31499          
1 59217U 24046S   26078.49293889 -.00000609  00000+0 -84228-5 0  9990
2 59217  53.1595 109.5758 0001313  80.1921 279.9228 15.30189552114541
STARLINK-30614          
1 58098U 23161B   26078.42866909 -.00002452  00000+0 -70725-4 0  9999
2 58098  53.1601 120.2303 0001307 108.0031 252.1113 15.30176881135917
STARLINK-33743          
1 63440U 25069H   26078.42605638  .00011346  00000+0  39471-3 0  9997
2 63440  53.1575  97.3762 0000869  99.4553 260.6546 15.30190991 54788
STARLINK-1296           
1 45412U 20019BE  26078.29469779  .00046337  00000+0  15395-2 0  9991
2 45412  53.1578  84.6203 0001704  94.6023 265.5173 15.30769200331443
STARLINK-30612          
1 58106U 23161K   26078.49339911 -.00001149  00000+0 -26677-4 0  9993
2 58106  53.1602 106.9839 0001292  85.9599 274.1549 15.30202002136102
STARLINK-3762           
1 52374U 22045AV  26078.62217014 -.00000341  00000+0 -33510-5 0  9996
2 52374  53.2173 144.5340 0001324  79.0761 281.0381 15.08838321217423
STARLINK-4117           
1 53169U 22083AP  26078.48604968  .00000134  00000+0  26476-4 0  9993
2 53169  53.2162 105.4023 0001279  84.1996 275.9142 15.08840510203036
STARLINK-32358          
1 61531U 24183Y   26078.42707926 -.00001203  00000+0 -28518-4 0  9999
2 61531  53.1603  97.1936 0001173 140.1418 219.9669 15.30187370 81143
STARLINK-34763          
1 65206U 25176J   26078.49233697  .00024811  00000+0  84704-3 0  9997
2 65206  53.1582 107.0264 0001218  83.2109 276.9030 15.30199099 34617
STARLINK-1569           
1 46039U 20055N   26078.91667824  .00088622  00000+0  29779-2 0  9991
2 46039  53.1579  79.2003 0000956  86.3266 104.8639 15.30101087  5839
STARLINK-4512           
1 53398U 22097L   26078.41657058  .00000953  00000+0  77958-4 0  9993
2 53398  53.2162  80.4552 0001239  87.4004 272.7130 15.08833423199986
STARLINK-32446          
1 61262U 24175V   26078.43254931 -.00000562  00000+0 -68471-5 0  9995
2 61262  53.1611 148.8992 0000941  95.5808 264.5301 15.30193684 82940
STARLINK-35972          
1 66638U 25271X   26078.42548200  .00012290  00000+0  42642-3 0  9998
2 66638  53.1595  94.9664 0001041  90.0392 270.0728 15.30198516 19056
STARLINK-4280           
1 53178U 22083AY  26078.48648701 -.00000476  00000+0 -11808-4 0  9990
2 53178  53.2174 120.1436 0001348  88.1301 271.9846 15.08834723202824
STARLINK-5064           
1 55428U 23014AP  26078.67754973  .00000074  00000+0  14032-4 0  9999
2 55428  69.9996  59.4605 0003111 265.7566  94.3238 14.98329661173050
